start=new Date('2021-11-07T00:00:00.000Z').valueOf();
sats=[{"MEAN_MOTION":"15.06374432","OBJECT_TYPE":"PAYLOAD","INCLINATION":"53.0553","GP_ID":"189131113","NORAD_CAT_ID":"47384","RCS_SIZE":"LARGE","OBJECT_NAME":"STARLINK-2104","ELEMENT_SET_NO":"999","SEMIMAJOR_AXIS":"6925.427","BSTAR":"-0.00013492000000","CENTER_NAME":"EARTH","TLE_LINE2":"2 47384  53.0553 303.8100 0001647  64.4250 295.6909 15.06374432 44679","MEAN_MOTION_DOT":"-0.00002289","RA_OF_ASC_NODE":"303.8100","EPHEMERIS_TYPE":"0","PERIAPSIS":"546.151","MEAN_ELEMENT_THEORY":"SGP4","COUNTRY_CODE":"US","REV_AT_EPOCH":"4467","FILE":"3206165","TLE_LINE1":"1 47384U 21005AM  21310.39285561 -.00002289  00000-0 -13492-3 0  9995","ECCENTRICITY":"0.00016470","APOAPSIS":"548.433","SITE":"AFETR","EPOCH":"2021-11-06T09:25:42.724704","TIME_SYSTEM":"UTC","CLASSIFICATION_TYPE":"U","ARG_OF_PERICENTER":"64.4250","MEAN_ANOMALY":"295.6909","LAUNCH_DATE":"2021-01-20","DECAY_DATE":null,"PERIOD":"95.594","REF_FRAME":"TEME","MEAN_MOTION_DDOT":"0.0000000000000","OBJECT_ID":"2021-005AM"},{"MEAN_MOTION_DDOT":"0.0000000000000","OBJECT_ID":"2021-005AN","PERIOD":"95.592","DECAY_DATE":null,"LAUNCH_DATE":"2021-01-20","REF_FRAME":"TEME","MEAN_ANOMALY":"285.5180","CLASSIFICATION_TYPE":"U","ARG_OF_PERICENTER":"74.6002","ECCENTRICITY":"0.00017500","TLE_LINE1":"1 47385U 21005AN  21310.47856689  .00001052  00000-0  89470-4 0  9995","APOAPSIS":"548.400","SITE":"AFETR","EPOCH":"2021-11-06T11:29:08.179296","TIME_SYSTEM":"UTC","MEAN_MOTION_DOT":"0.00001052","TLE_LINE2":"2 47385  53.0534 303.4227 0001750  74.6002 285.5180 15.06408163 44687","CENTER_NAME":"EARTH","RA_OF_ASC_NODE":"303.4227","EPHEMERIS_TYPE":"0","MEAN_ELEMENT_THEORY":"SGP4","PERIAPSIS":"545.977","FILE":"3206165","COUNTRY_CODE":"US","REV_AT_EPOCH":"4468","SEMIMAJOR_AXIS":"6925.324","ELEMENT_SET_NO":"999","OBJECT_NAME":"STARLINK-2105","BSTAR":"0.00008947000000","GP_ID":"189130361","RCS_SIZE":"LARGE","NORAD_CAT_ID":"47385","MEAN_MOTION":"15.06408163","OBJECT_TYPE":"PAYLOAD","INCLINATION":"53.0534"},{"RA_OF_ASC_NODE":"302.3915","EPHEMERIS_TYPE":"0","MEAN_MOTION_DOT":"-0.00003388","TLE_LINE2":"2 47386  53.0549 302.3915 0001542  72.0817 288.0340 15.06403806 45340","CENTER_NAME":"EARTH","FILE":"3205814","REV_AT_EPOCH":"4534","COUNTRY_CODE":"US","MEAN_ELEMENT_THEORY":"SGP4","PERIAPSIS":"546.134","SEMIMAJOR_AXIS":"6925.337","ELEMENT_SET_NO":"999","OBJECT_NAME":"STARLINK-2106","BSTAR":"-0.00020866000000","NORAD_CAT_ID":"47386","RCS_SIZE":"LARGE","GP_ID":"189101564","MEAN_MOTION":"15.06403806","INCLINATION":"53.0549","OBJECT_TYPE":"PAYLOAD","MEAN_MOTION_DDOT":"0.0000000000000","OBJECT_ID":"2021-005AP","DECAY_DATE":null,"LAUNCH_DATE":"2021-01-20","REF_FRAME":"TEME","PERIOD":"95.592","MEAN_ANOMALY":"288.0340","ARG_OF_PERICENTER":"72.0817","CLASSIFICATION_TYPE":"U","APOAPSIS":"548.270","ECCENTRICITY":"0.00015420","TLE_LINE1":"1 47386U 21005AP  21310.70708896 -.00003388  00000-0 -20866-3 0  9997","EPOCH":"2021-11-06T16:58:12.486144","TIME_SYSTEM":"UTC","SITE":"AFETR"},{"TIME_SYSTEM":"UTC","EPOCH":"2021-11-06T11:51:40.583808","SITE":"AFETR","APOAPSIS":"548.323","ECCENTRICITY":"0.00014460","TLE_LINE1":"1 47387U 21005AQ  21310.49421972 -.00020750  00000-0 -13795-2 0  9995","ARG_OF_PERICENTER":"73.0381","CLASSIFICATION_TYPE":"U","DECAY_DATE":null,"PERIOD":"95.594","LAUNCH_DATE":"2021-01-20","REF_FRAME":"TEME","MEAN_ANOMALY":"287.0766","OBJECT_ID":"2021-005AQ","MEAN_MOTION_DDOT":"0.0000000000000","INCLINATION":"53.0554","OBJECT_TYPE":"PAYLOAD","MEAN_MOTION":"15.06364854","RCS_SIZE":"LARGE","NORAD_CAT_ID":"47387","GP_ID":"189130863","BSTAR":"-0.00137950000000","SEMIMAJOR_AXIS":"6925.456","ELEMENT_SET_NO":"999","OBJECT_NAME":"STARLINK-2108","FILE":"3206165","REV_AT_EPOCH":"4426","COUNTRY_CODE":"US","MEAN_ELEMENT_THEORY":"SGP4","PERIAPSIS":"546.320","RA_OF_ASC_NODE":"333.3514","EPHEMERIS_TYPE":"0","MEAN_MOTION_DOT":"-0.00020750","TLE_LINE2":"2 47387  53.0554 333.3514 0001446  73.0381 287.0766 15.06364854 44266","CENTER_NAME":"EARTH"},{"RCS_SIZE":"LARGE","NORAD_CAT_ID":"47388","GP_ID":"189101612","MEAN_MOTION":"15.06345019","INCLINATION":"53.0551","OBJECT_TYPE":"PAYLOAD","EPHEMERIS_TYPE":"0","RA_OF_ASC_NODE":"332.9880","TLE_LINE2":"2 47388  53.0551 332.9880 0001621  72.2760 287.8405 15.06345019 45230","MEAN_MOTION_DOT":"-0.00024353","CENTER_NAME":"EARTH","FILE":"3205817","COUNTRY_CODE":"US","REV_AT_EPOCH":"4523","MEAN_ELEMENT_THEORY":"SGP4","PERIAPSIS":"546.259","ELEMENT_SET_NO":"999","SEMIMAJOR_AXIS":"6925.517","OBJECT_NAME":"STARLINK-2109","BSTAR":"-0.00162400000000","ARG_OF_PERICENTER":"72.2760","CLASSIFICATION_TYPE":"U","APOAPSIS":"548.505","ECCENTRICITY":"0.00016210","TLE_LINE1":"1 47388U 21005AR  21310.57531526 -.00024353  00000-0 -16240-2 0  9993","TIME_SYSTEM":"UTC","EPOCH":"2021-11-06T13:48:27.238464","SITE":"AFETR","MEAN_MOTION_DDOT":"0.0000000000000","OBJECT_ID":"2021-005AR","REF_FRAME":"TEME","DECAY_DATE":null,"LAUNCH_DATE":"2021-01-20","PERIOD":"95.596","MEAN_ANOMALY":"287.8405"},{"MEAN_MOTION":"15.06395748","OBJECT_TYPE":"PAYLOAD","INCLINATION":"53.0525","GP_ID":"189129862","RCS_SIZE":"LARGE","NORAD_CAT_ID":"47389","OBJECT_NAME":"STARLINK-2110","ELEMENT_SET_NO":"999","SEMIMAJOR_AXIS":"6925.362","BSTAR":"-0.00007264700000","CENTER_NAME":"EARTH","TLE_LINE2":"2 47389  53.0525 313.3621 0001394  73.6651 286.4491 15.06395748 44546","MEAN_MOTION_DOT":"-0.00001363","RA_OF_ASC_NODE":"313.3621","EPHEMERIS_TYPE":"0","PERIAPSIS":"546.261","MEAN_ELEMENT_THEORY":"SGP4","REV_AT_EPOCH":"4454","COUNTRY_CODE":"US","FILE":"3206165","TLE_LINE1":"1 47389U 21005AS  21310.48869444 -.00001363  00000-0 -72647-4 0  9998","ECCENTRICITY":"0.00013940","APOAPSIS":"548.192","SITE":"AFETR","EPOCH":"2021-11-06T11:43:43.199616","TIME_SYSTEM":"UTC","CLASSIFICATION_TYPE":"U","ARG_OF_PERICENTER":"73.6651","MEAN_ANOMALY":"286.4491","LAUNCH_DATE":"2021-01-20","DECAY_DATE":null,"PERIOD":"95.592","REF_FRAME":"TEME","MEAN_MOTION_DDOT":"0.0000000000000","OBJECT_ID":"2021-005AS"},{"GP_ID":"189130112","NORAD_CAT_ID":"47390","RCS_SIZE":"LARGE","OBJECT_TYPE":"PAYLOAD","INCLINATION":"53.0550","MEAN_MOTION":"15.06387818","MEAN_ELEMENT_THEORY":"SGP4","PERIAPSIS":"546.483","FILE":"3206165","REV_AT_EPOCH":"4424","COUNTRY_CODE":"US","MEAN_MOTION_DOT":"-0.00003525","TLE_LINE2":"2 47390  53.0550 333.9822 0001109  78.6612 281.4502 15.06387818 44247","CENTER_NAME":"EARTH","EPHEMERIS_TYPE":"0","RA_OF_ASC_NODE":"333.9822","BSTAR":"-0.00021795000000","ELEMENT_SET_NO":"999","SEMIMAJOR_AXIS":"6925.386","OBJECT_NAME":"STARLINK-2111","CLASSIFICATION_TYPE":"U","ARG_OF_PERICENTER":"78.6612","SITE":"AFETR","TIME_SYSTEM":"UTC","EPOCH":"2021-11-06T08:24:40.526784","ECCENTRICITY":"0.00011090","TLE_LINE1":"1 47390U 21005AT  21310.35046906 -.00003525  00000-0 -21795-3 0  9995","APOAPSIS":"548.019","OBJECT_ID":"2021-005AT","MEAN_MOTION_DDOT":"0.0000000000000","DECAY_DATE":null,"PERIOD":"95.593","LAUNCH_DATE":"2021-01-20","REF_FRAME":"TEME","MEAN_ANOMALY":"281.4502"},{"BSTAR":"-0.00068998000000","ELEMENT_SET_NO":"999","SEMIMAJOR_AXIS":"6925.421","OBJECT_NAME":"STARLINK-2112","MEAN_ELEMENT_THEORY":"SGP4","PERIAPSIS":"546.287","FILE":"3205819","REV_AT_EPOCH":"4532","COUNTRY_CODE":"US","MEAN_MOTION_DOT":"-0.00010537","TLE_LINE2":"2 47391  53.0535 302.4535 0001443  73.0229 287.0918 15.06376384 45326","CENTER_NAME":"EARTH","EPHEMERIS_TYPE":"0","RA_OF_ASC_NODE":"302.4535","OBJECT_TYPE":"PAYLOAD","INCLINATION":"53.0535","MEAN_MOTION":"15.06376384","GP_ID":"189102143","RCS_SIZE":"LARGE","NORAD_CAT_ID":"47391","LAUNCH_DATE":"2021-01-20","DECAY_DATE":null,"REF_FRAME":"TEME","PERIOD":"95.594","MEAN_ANOMALY":"287.0918","OBJECT_ID":"2021-005AU","MEAN_MOTION_DDOT":"0.0000000000000","SITE":"AFETR","TIME_SYSTEM":"UTC","EPOCH":"2021-11-06T16:35:36.617856","ECCENTRICITY":"0.00014430","TLE_LINE1":"1 47391U 21005AU  21310.69139604 -.00010537  00000-0 -68998-3 0  9998","APOAPSIS":"548.285","CLASSIFICATION_TYPE":"U","ARG_OF_PERICENTER":"73.0229"},{"ARG_OF_PERICENTER":"68.3282","CLASSIFICATION_TYPE":"U","SITE":"AFETR","TIME_SYSTEM":"UTC","EPOCH":"2021-11-06T10:14:49.339680","TLE_LINE1":"1 47392U 21005AV  21310.42695995  .00004834  00000-0  34310-3 0  9992","ECCENTRICITY":"0.00012810","APOAPSIS":"548.066","OBJECT_ID":"2021-005AV","MEAN_MOTION_DDOT":"0.0000000000000","MEAN_ANOMALY":"291.7843","LAUNCH_DATE":"2021-01-20","DECAY_DATE":null,"REF_FRAME":"TEME","PERIOD":"95.591","GP_ID":"189131114","RCS_SIZE":"LARGE","NORAD_CAT_ID":"47392","OBJECT_TYPE":"PAYLOAD","INCLINATION":"53.0525","MEAN_MOTION":"15.06411450","PERIAPSIS":"546.291","MEAN_ELEMENT_THEORY":"SGP4","REV_AT_EPOCH":"4467","COUNTRY_CODE":"US","FILE":"3206165","CENTER_NAME":"EARTH","MEAN_MOTION_DOT":"0.00004834","TLE_LINE2":"2 47392  53.0525 303.6400 0001281  68.3282 291.7843 15.06411450 44676","RA_OF_ASC_NODE":"303.6400","EPHEMERIS_TYPE":"0","BSTAR":"0.00034310000000","OBJECT_NAME":"STARLINK-2113","SEMIMAJOR_AXIS":"6925.313","ELEMENT_SET_NO":"999"},{"CLASSIFICATION_TYPE":"U","ARG_OF_PERICENTER":"81.2666","TIME_SYSTEM":"UTC","EPOCH":"2021-11-06T14:50:07.931040","SITE":"AFETR","APOAPSIS":"548.289","TLE_LINE1":"1 47393U 21005AW  21310.61814735 -.00009617  00000-0 -62814-3 0  9995","ECCENTRICITY":"0.00014190","OBJECT_ID":"2021-005AW","MEAN_MOTION_DDOT":"0.0000000000000","MEAN_ANOMALY":"278.8483","LAUNCH_DATE":"2021-01-20","DECAY_DATE":null,"REF_FRAME":"TEME","PERIOD":"95.594","NORAD_CAT_ID":"47393","RCS_SIZE":"LARGE","GP_ID":"189102144","INCLINATION":"53.0491","OBJECT_TYPE":"PAYLOAD","MEAN_MOTION":"15.06369721","REV_AT_EPOCH":"4505","COUNTRY_CODE":"US","FILE":"3205819","PERIAPSIS":"546.324","MEAN_ELEMENT_THEORY":"SGP4","EPHEMERIS_TYPE":"0","RA_OF_ASC_NODE":"277.8042","CENTER_NAME":"EARTH","TLE_LINE2":"2 47393  53.0491 277.8042 0001419  81.2666 278.8483 15.06369721 45058","MEAN_MOTION_DOT":"-0.00009617","BSTAR":"-0.00062814000000","OBJECT_NAME":"STARLINK-2114","SEMIMAJOR_AXIS":"6925.441","ELEMENT_SET_NO":"999"}];
